<?xml version="1.0" encoding="UTF-8"?><gpx version="1.1" creator="mapping-demo prepare_route.py" xmlns="http://www.topografix.com/GPX/1/1"><trk><name>patalsu</name><trkseg><trkpt lat="32.315172" lon="77.158595"><ele>2427.5</ele></trkpt><trkpt lat="32.315182" lon="77.158506"><ele>2426.9</ele></trkpt><trkpt lat="32.315191" lon="77.158417"><ele>2427.3</ele></trkpt><trkpt lat="32.315201" lon="77.158329"><ele>2428.0</ele></trkpt><trkpt lat="32.315210" lon="77.158240"><ele>2428.8</ele></trkpt><trkpt lat="32.315220" lon="77.158151"><ele>2429.9</ele></trkpt><trkpt lat="32.315284" lon="77.158078"><ele>2430.9</ele></trkpt><trkpt lat="32.315348" lon="77.158004"><ele>2432.2</ele></trkpt><trkpt lat="32.315412" lon="77.157931"><ele>2433.5</ele></trkpt><trkpt lat="32.315476" lon="77.157857"><ele>2434.4</ele></trkpt><trkpt lat="32.315540" lon="77.157784"><ele>2434.8</ele></trkpt><trkpt lat="32.315605" lon="77.157710"><ele>2435.4</ele></trkpt><trkpt lat="32.315669" lon="77.157637"><ele>2436.0</ele></trkpt><trkpt lat="32.315733" lon="77.157563"><ele>2436.1</ele></trkpt><trkpt lat="32.315797" lon="77.157490"><ele>2435.9</ele></trkpt><trkpt lat="32.315861" lon="77.157416"><ele>2435.7</ele></trkpt><trkpt lat="32.315925" lon="77.157343"><ele>2435.3</ele></trkpt><trkpt lat="32.315944" lon="77.157253"><ele>2435.3</ele></trkpt><trkpt lat="32.315963" lon="77.157163"><ele>2435.7</ele></trkpt><trkpt lat="32.315981" lon="77.157073"><ele>2436.1</ele></trkpt><trkpt lat="32.316000" lon="77.156983"><ele>2436.7</ele></trkpt><trkpt lat="32.316019" lon="77.156893"><ele>2437.8</ele></trkpt><trkpt lat="32.316038" lon="77.156803"><ele>2438.8</ele></trkpt><trkpt lat="32.316028" lon="77.156876"><ele>2438.0</ele></trkpt><trkpt lat="32.316018" lon="77.156950"><ele>2437.1</ele></trkpt><trkpt lat="32.316008" lon="77.157023"><ele>2436.3</ele></trkpt><trkpt lat="32.316054" lon="77.156942"><ele>2436.6</ele></trkpt><trkpt lat="32.316099" lon="77.156862"><ele>2436.8</ele></trkpt><trkpt lat="32.316145" lon="77.156781"><ele>2437.4</ele></trkpt><trkpt lat="32.316191" lon="77.156838"><ele>2435.6</ele></trkpt><trkpt lat="32.316237" lon="77.156894"><ele>2433.4</ele></trkpt><trkpt lat="32.316283" lon="77.156951"><ele>2431.1</ele></trkpt><trkpt lat="32.316362" lon="77.156936"><ele>2430.0</ele></trkpt><trkpt lat="32.316441" lon="77.156921"><ele>2429.0</ele></trkpt><trkpt lat="32.316519" lon="77.156905"><ele>2428.1</ele></trkpt><trkpt lat="32.316598" lon="77.156890"><ele>2427.4</ele></trkpt><trkpt lat="32.316677" lon="77.156875"><ele>2426.7</ele></trkpt><trkpt lat="32.316756" lon="77.156860"><ele>2426.1</ele></trkpt><trkpt lat="32.316835" lon="77.156875"><ele>2424.0</ele></trkpt><trkpt lat="32.316914" lon="77.156889"><ele>2421.3</ele></trkpt><trkpt lat="32.316992" lon="77.156904"><ele>2418.5</ele></trkpt><trkpt lat="32.317071" lon="77.156919"><ele>2415.5</ele></trkpt><trkpt lat="32.317150" lon="77.156933"><ele>2412.0</ele></trkpt><trkpt lat="32.317229" lon="77.156948"><ele>2408.5</ele></trkpt><trkpt lat="32.317309" lon="77.156903"><ele>2408.7</ele></trkpt><trkpt lat="32.317389" lon="77.156858"><ele>2409.7</ele></trkpt><trkpt lat="32.317468" lon="77.156813"><ele>2410.2</ele></trkpt><trkpt lat="32.317548" lon="77.156768"><ele>2410.2</ele></trkpt><trkpt lat="32.317628" lon="77.156723"><ele>2413.3</ele></trkpt><trkpt lat="32.317708" lon="77.156678"><ele>2416.4</ele></trkpt><trkpt lat="32.317787" lon="77.156633"><ele>2419.0</ele></trkpt><trkpt lat="32.317867" lon="77.156588"><ele>2422.7</ele></trkpt><trkpt lat="32.317947" lon="77.156543"><ele>2426.9</ele></trkpt><trkpt lat="32.318027" lon="77.156498"><ele>2431.1</ele></trkpt><trkpt lat="32.318107" lon="77.156453"><ele>2434.8</ele></trkpt><trkpt lat="32.318186" lon="77.156408"><ele>2437.7</ele></trkpt><trkpt lat="32.318266" lon="77.156363"><ele>2440.4</ele></trkpt><trkpt lat="32.318346" lon="77.156318"><ele>2442.6</ele></trkpt><trkpt lat="32.318426" lon="77.156272"><ele>2443.7</ele></trkpt><trkpt lat="32.318506" lon="77.156227"><ele>2445.0</ele></trkpt><trkpt lat="32.318585" lon="77.156182"><ele>2446.5</ele></trkpt><trkpt lat="32.318665" lon="77.156137"><ele>2446.5</ele></trkpt><trkpt lat="32.318745" lon="77.156092"><ele>2446.6</ele></trkpt><trkpt lat="32.318825" lon="77.156047"><ele>2446.9</ele></trkpt><trkpt lat="32.318905" lon="77.156002"><ele>2447.1</ele></trkpt><trkpt lat="32.318984" lon="77.155957"><ele>2447.2</ele></trkpt><trkpt lat="32.319064" lon="77.155912"><ele>2447.6</ele></trkpt><trkpt lat="32.319144" lon="77.155867"><ele>2447.8</ele></trkpt><trkpt lat="32.319224" lon="77.155822"><ele>2447.7</ele></trkpt><trkpt lat="32.319303" lon="77.155777"><ele>2447.6</ele></trkpt><trkpt lat="32.319383" lon="77.155732"><ele>2447.5</ele></trkpt><trkpt lat="32.319463" lon="77.155687"><ele>2447.4</ele></trkpt><trkpt lat="32.319523" lon="77.155729"><ele>2447.4</ele></trkpt><trkpt lat="32.319584" lon="77.155771"><ele>2447.5</ele></trkpt><trkpt lat="32.319644" lon="77.155812"><ele>2447.6</ele></trkpt><trkpt lat="32.319704" lon="77.155854"><ele>2447.8</ele></trkpt><trkpt lat="32.319775" lon="77.155820"><ele>2447.4</ele></trkpt><trkpt lat="32.319845" lon="77.155785"><ele>2446.7</ele></trkpt><trkpt lat="32.319916" lon="77.155751"><ele>2445.8</ele></trkpt><trkpt lat="32.319986" lon="77.155716"><ele>2444.7</ele></trkpt><trkpt lat="32.320057" lon="77.155682"><ele>2443.4</ele></trkpt><trkpt lat="32.320136" lon="77.155712"><ele>2443.3</ele></trkpt><trkpt lat="32.320214" lon="77.155743"><ele>2443.2</ele></trkpt><trkpt lat="32.320293" lon="77.155773"><ele>2443.1</ele></trkpt><trkpt lat="32.320371" lon="77.155804"><ele>2442.8</ele></trkpt><trkpt lat="32.320450" lon="77.155834"><ele>2441.6</ele></trkpt><trkpt lat="32.320529" lon="77.155865"><ele>2440.2</ele></trkpt><trkpt lat="32.320607" lon="77.155895"><ele>2438.4</ele></trkpt><trkpt lat="32.320686" lon="77.155926"><ele>2438.1</ele></trkpt><trkpt lat="32.320764" lon="77.155957"><ele>2437.7</ele></trkpt><trkpt lat="32.320843" lon="77.155987"><ele>2437.4</ele></trkpt><trkpt lat="32.320890" lon="77.156057"><ele>2436.7</ele></trkpt><trkpt lat="32.320938" lon="77.156128"><ele>2436.7</ele></trkpt><trkpt lat="32.320985" lon="77.156198"><ele>2437.2</ele></trkpt><trkpt lat="32.321033" lon="77.156269"><ele>2439.0</ele></trkpt><trkpt lat="32.321080" lon="77.156339"><ele>2442.3</ele></trkpt><trkpt lat="32.321030" lon="77.156410"><ele>2442.3</ele></trkpt><trkpt lat="32.320979" lon="77.156482"><ele>2441.5</ele></trkpt><trkpt lat="32.320929" lon="77.156553"><ele>2440.7</ele></trkpt><trkpt lat="32.320878" lon="77.156624"><ele>2440.6</ele></trkpt><trkpt lat="32.320828" lon="77.156696"><ele>2441.9</ele></trkpt><trkpt lat="32.320777" lon="77.156767"><ele>2443.9</ele></trkpt><trkpt lat="32.320806" lon="77.156845"><ele>2447.1</ele></trkpt><trkpt lat="32.320835" lon="77.156923"><ele>2450.1</ele></trkpt><trkpt lat="32.320864" lon="77.157000"><ele>2453.1</ele></trkpt><trkpt lat="32.320893" lon="77.157078"><ele>2457.1</ele></trkpt><trkpt lat="32.320964" lon="77.157143"><ele>2462.1</ele></trkpt><trkpt lat="32.321035" lon="77.157208"><ele>2465.4</ele></trkpt><trkpt lat="32.321105" lon="77.157273"><ele>2466.8</ele></trkpt><trkpt lat="32.321176" lon="77.157338"><ele>2470.5</ele></trkpt><trkpt lat="32.321247" lon="77.157403"><ele>2474.4</ele></trkpt><trkpt lat="32.321318" lon="77.157469"><ele>2478.1</ele></trkpt><trkpt lat="32.321389" lon="77.157534"><ele>2479.9</ele></trkpt><trkpt lat="32.321460" lon="77.157599"><ele>2480.8</ele></trkpt><trkpt lat="32.321530" lon="77.157664"><ele>2482.3</ele></trkpt><trkpt lat="32.321601" lon="77.157729"><ele>2484.2</ele></trkpt><trkpt lat="32.321672" lon="77.157794"><ele>2485.8</ele></trkpt><trkpt lat="32.321750" lon="77.157781"><ele>2487.6</ele></trkpt><trkpt lat="32.321828" lon="77.157767"><ele>2489.2</ele></trkpt><trkpt lat="32.321906" lon="77.157753"><ele>2491.5</ele></trkpt><trkpt lat="32.321985" lon="77.157740"><ele>2494.5</ele></trkpt><trkpt lat="32.322063" lon="77.157726"><ele>2497.6</ele></trkpt><trkpt lat="32.322141" lon="77.157713"><ele>2501.1</ele></trkpt><trkpt lat="32.322224" lon="77.157751"><ele>2506.3</ele></trkpt><trkpt lat="32.322307" lon="77.157790"><ele>2510.6</ele></trkpt><trkpt lat="32.322390" lon="77.157828"><ele>2514.6</ele></trkpt><trkpt lat="32.322421" lon="77.157738"><ele>2518.9</ele></trkpt><trkpt lat="32.322453" lon="77.157649"><ele>2521.2</ele></trkpt><trkpt lat="32.322484" lon="77.157559"><ele>2523.8</ele></trkpt><trkpt lat="32.322516" lon="77.157469"><ele>2526.5</ele></trkpt><trkpt lat="32.322547" lon="77.157379"><ele>2527.8</ele></trkpt><trkpt lat="32.322579" lon="77.157290"><ele>2528.8</ele></trkpt><trkpt lat="32.322610" lon="77.157200"><ele>2529.6</ele></trkpt><trkpt lat="32.322642" lon="77.157110"><ele>2530.2</ele></trkpt><trkpt lat="32.322673" lon="77.157020"><ele>2530.8</ele></trkpt><trkpt lat="32.322705" lon="77.156931"><ele>2531.0</ele></trkpt><trkpt lat="32.322736" lon="77.156841"><ele>2530.7</ele></trkpt><trkpt lat="32.322797" lon="77.156767"><ele>2532.1</ele></trkpt><trkpt lat="32.322859" lon="77.156692"><ele>2532.7</ele></trkpt><trkpt lat="32.322920" lon="77.156618"><ele>2533.0</ele></trkpt><trkpt lat="32.322981" lon="77.156543"><ele>2534.5</ele></trkpt><trkpt lat="32.323042" lon="77.156469"><ele>2537.0</ele></trkpt><trkpt lat="32.323104" lon="77.156394"><ele>2539.1</ele></trkpt><trkpt lat="32.323165" lon="77.156320"><ele>2541.0</ele></trkpt><trkpt lat="32.323175" lon="77.156247"><ele>2541.0</ele></trkpt><trkpt lat="32.323186" lon="77.156175"><ele>2541.6</ele></trkpt><trkpt lat="32.323196" lon="77.156102"><ele>2542.1</ele></trkpt><trkpt lat="32.323269" lon="77.156131"><ele>2544.3</ele></trkpt><trkpt lat="32.323341" lon="77.156161"><ele>2546.8</ele></trkpt><trkpt lat="32.323414" lon="77.156190"><ele>2549.7</ele></trkpt><trkpt lat="32.323486" lon="77.156220"><ele>2551.0</ele></trkpt><trkpt lat="32.323559" lon="77.156249"><ele>2552.3</ele></trkpt><trkpt lat="32.323593" lon="77.156326"><ele>2555.0</ele></trkpt><trkpt lat="32.323626" lon="77.156402"><ele>2559.2</ele></trkpt><trkpt lat="32.323659" lon="77.156478"><ele>2563.7</ele></trkpt><trkpt lat="32.323693" lon="77.156555"><ele>2567.7</ele></trkpt><trkpt lat="32.323782" lon="77.156565"><ele>2568.2</ele></trkpt><trkpt lat="32.323872" lon="77.156574"><ele>2568.6</ele></trkpt><trkpt lat="32.323961" lon="77.156584"><ele>2569.8</ele></trkpt><trkpt lat="32.324051" lon="77.156593"><ele>2571.6</ele></trkpt><trkpt lat="32.324140" lon="77.156603"><ele>2573.6</ele></trkpt><trkpt lat="32.324224" lon="77.156578"><ele>2575.2</ele></trkpt><trkpt lat="32.324308" lon="77.156554"><ele>2577.4</ele></trkpt><trkpt lat="32.324392" lon="77.156529"><ele>2579.4</ele></trkpt><trkpt lat="32.324476" lon="77.156505"><ele>2581.8</ele></trkpt><trkpt lat="32.324560" lon="77.156480"><ele>2584.3</ele></trkpt><trkpt lat="32.324644" lon="77.156456"><ele>2586.7</ele></trkpt><trkpt lat="32.324728" lon="77.156431"><ele>2589.2</ele></trkpt><trkpt lat="32.324812" lon="77.156407"><ele>2591.6</ele></trkpt><trkpt lat="32.324896" lon="77.156382"><ele>2594.0</ele></trkpt><trkpt lat="32.324980" lon="77.156358"><ele>2595.6</ele></trkpt><trkpt lat="32.325064" lon="77.156333"><ele>2596.9</ele></trkpt><trkpt lat="32.325148" lon="77.156309"><ele>2599.1</ele></trkpt><trkpt lat="32.325232" lon="77.156284"><ele>2601.0</ele></trkpt><trkpt lat="32.325316" lon="77.156260"><ele>2601.8</ele></trkpt><trkpt lat="32.325400" lon="77.156235"><ele>2602.4</ele></trkpt><trkpt lat="32.325448" lon="77.156323"><ele>2604.2</ele></trkpt><trkpt lat="32.325496" lon="77.156411"><ele>2608.6</ele></trkpt><trkpt lat="32.325544" lon="77.156499"><ele>2612.9</ele></trkpt><trkpt lat="32.325592" lon="77.156587"><ele>2616.5</ele></trkpt><trkpt lat="32.325639" lon="77.156675"><ele>2620.5</ele></trkpt><trkpt lat="32.325687" lon="77.156763"><ele>2625.7</ele></trkpt><trkpt lat="32.325735" lon="77.156851"><ele>2630.3</ele></trkpt><trkpt lat="32.325783" lon="77.156939"><ele>2634.8</ele></trkpt><trkpt lat="32.325856" lon="77.156969"><ele>2634.6</ele></trkpt><trkpt lat="32.325928" lon="77.156998"><ele>2634.8</ele></trkpt><trkpt lat="32.326001" lon="77.157028"><ele>2634.9</ele></trkpt><trkpt lat="32.326073" lon="77.157057"><ele>2635.0</ele></trkpt><trkpt lat="32.326146" lon="77.157087"><ele>2635.2</ele></trkpt><trkpt lat="32.326203" lon="77.157152"><ele>2638.7</ele></trkpt><trkpt lat="32.326261" lon="77.157217"><ele>2642.5</ele></trkpt><trkpt lat="32.326318" lon="77.157282"><ele>2646.0</ele></trkpt><trkpt lat="32.326376" lon="77.157347"><ele>2649.8</ele></trkpt><trkpt lat="32.326434" lon="77.157411"><ele>2653.6</ele></trkpt><trkpt lat="32.326491" lon="77.157476"><ele>2657.4</ele></trkpt><trkpt lat="32.326549" lon="77.157541"><ele>2661.1</ele></trkpt><trkpt lat="32.326606" lon="77.157606"><ele>2664.2</ele></trkpt><trkpt lat="32.326674" lon="77.157656"><ele>2665.9</ele></trkpt><trkpt lat="32.326742" lon="77.157707"><ele>2668.3</ele></trkpt><trkpt lat="32.326810" lon="77.157757"><ele>2671.0</ele></trkpt><trkpt lat="32.326879" lon="77.157808"><ele>2673.5</ele></trkpt><trkpt lat="32.326947" lon="77.157858"><ele>2676.0</ele></trkpt><trkpt lat="32.327015" lon="77.157909"><ele>2680.4</ele></trkpt><trkpt lat="32.327083" lon="77.157959"><ele>2684.6</ele></trkpt><trkpt lat="32.327146" lon="77.157921"><ele>2682.8</ele></trkpt><trkpt lat="32.327208" lon="77.157883"><ele>2681.6</ele></trkpt><trkpt lat="32.327271" lon="77.157845"><ele>2682.0</ele></trkpt><trkpt lat="32.327348" lon="77.157880"><ele>2687.1</ele></trkpt><trkpt lat="32.327425" lon="77.157915"><ele>2691.8</ele></trkpt><trkpt lat="32.327502" lon="77.157949"><ele>2695.3</ele></trkpt><trkpt lat="32.327579" lon="77.157984"><ele>2698.4</ele></trkpt><trkpt lat="32.327576" lon="77.158089"><ele>2702.7</ele></trkpt><trkpt lat="32.327574" lon="77.158194"><ele>2707.0</ele></trkpt><trkpt lat="32.327631" lon="77.158238"><ele>2710.1</ele></trkpt><trkpt lat="32.327689" lon="77.158282"><ele>2712.9</ele></trkpt><trkpt lat="32.327746" lon="77.158326"><ele>2715.0</ele></trkpt><trkpt lat="32.327803" lon="77.158370"><ele>2716.9</ele></trkpt><trkpt lat="32.327756" lon="77.158346"><ele>2715.8</ele></trkpt><trkpt lat="32.327708" lon="77.158323"><ele>2714.8</ele></trkpt><trkpt lat="32.327732" lon="77.158418"><ele>2718.7</ele></trkpt><trkpt lat="32.327757" lon="77.158513"><ele>2723.1</ele></trkpt><trkpt lat="32.327821" lon="77.158560"><ele>2725.6</ele></trkpt><trkpt lat="32.327885" lon="77.158608"><ele>2727.8</ele></trkpt><trkpt lat="32.327949" lon="77.158655"><ele>2729.8</ele></trkpt><trkpt lat="32.328013" lon="77.158702"><ele>2731.3</ele></trkpt><trkpt lat="32.328077" lon="77.158750"><ele>2732.8</ele></trkpt><trkpt lat="32.328141" lon="77.158797"><ele>2734.2</ele></trkpt><trkpt lat="32.328171" lon="77.158868"><ele>2736.8</ele></trkpt><trkpt lat="32.328202" lon="77.158939"><ele>2739.4</ele></trkpt><trkpt lat="32.328232" lon="77.159010"><ele>2742.2</ele></trkpt><trkpt lat="32.328204" lon="77.159075"><ele>2744.9</ele></trkpt><trkpt lat="32.328175" lon="77.159139"><ele>2748.2</ele></trkpt><trkpt lat="32.328147" lon="77.159204"><ele>2751.7</ele></trkpt><trkpt lat="32.328207" lon="77.159213"><ele>2751.2</ele></trkpt><trkpt lat="32.328268" lon="77.159223"><ele>2751.3</ele></trkpt><trkpt lat="32.328328" lon="77.159232"><ele>2751.4</ele></trkpt><trkpt lat="32.328364" lon="77.159310"><ele>2754.5</ele></trkpt><trkpt lat="32.328400" lon="77.159389"><ele>2757.6</ele></trkpt><trkpt lat="32.328435" lon="77.159467"><ele>2760.3</ele></trkpt><trkpt lat="32.328471" lon="77.159546"><ele>2763.5</ele></trkpt><trkpt lat="32.328507" lon="77.159624"><ele>2766.6</ele></trkpt><trkpt lat="32.328568" lon="77.159666"><ele>2768.4</ele></trkpt><trkpt lat="32.328628" lon="77.159708"><ele>2770.2</ele></trkpt><trkpt lat="32.328688" lon="77.159751"><ele>2772.9</ele></trkpt><trkpt lat="32.328749" lon="77.159793"><ele>2776.5</ele></trkpt><trkpt lat="32.328809" lon="77.159769"><ele>2775.9</ele></trkpt><trkpt lat="32.328869" lon="77.159746"><ele>2775.4</ele></trkpt><trkpt lat="32.328929" lon="77.159722"><ele>2775.1</ele></trkpt><trkpt lat="32.328900" lon="77.159764"><ele>2777.0</ele></trkpt><trkpt lat="32.328870" lon="77.159807"><ele>2778.9</ele></trkpt><trkpt lat="32.328927" lon="77.159863"><ele>2782.7</ele></trkpt><trkpt lat="32.328983" lon="77.159920"><ele>2785.8</ele></trkpt><trkpt lat="32.329040" lon="77.159976"><ele>2788.5</ele></trkpt><trkpt lat="32.329127" lon="77.159973"><ele>2788.0</ele></trkpt><trkpt lat="32.329213" lon="77.159969"><ele>2787.8</ele></trkpt><trkpt lat="32.329300" lon="77.159966"><ele>2788.8</ele></trkpt><trkpt lat="32.329386" lon="77.159962"><ele>2789.8</ele></trkpt><trkpt lat="32.329473" lon="77.159959"><ele>2791.4</ele></trkpt><trkpt lat="32.329538" lon="77.160031"><ele>2795.1</ele></trkpt><trkpt lat="32.329603" lon="77.160102"><ele>2798.8</ele></trkpt><trkpt lat="32.329664" lon="77.160063"><ele>2799.6</ele></trkpt><trkpt lat="32.329726" lon="77.160024"><ele>2801.0</ele></trkpt><trkpt lat="32.329788" lon="77.159985"><ele>2801.8</ele></trkpt><trkpt lat="32.329849" lon="77.159946"><ele>2802.5</ele></trkpt><trkpt lat="32.329932" lon="77.159951"><ele>2804.4</ele></trkpt><trkpt lat="32.330015" lon="77.159956"><ele>2806.2</ele></trkpt><trkpt lat="32.330098" lon="77.159961"><ele>2808.0</ele></trkpt><trkpt lat="32.330181" lon="77.159966"><ele>2809.8</ele></trkpt><trkpt lat="32.330263" lon="77.159971"><ele>2811.8</ele></trkpt><trkpt lat="32.330346" lon="77.159976"><ele>2813.9</ele></trkpt><trkpt lat="32.330429" lon="77.159981"><ele>2815.9</ele></trkpt><trkpt lat="32.330512" lon="77.159986"><ele>2818.2</ele></trkpt><trkpt lat="32.330595" lon="77.159991"><ele>2820.6</ele></trkpt><trkpt lat="32.330676" lon="77.159952"><ele>2822.3</ele></trkpt><trkpt lat="32.330758" lon="77.159913"><ele>2823.7</ele></trkpt><trkpt lat="32.330839" lon="77.159873"><ele>2824.5</ele></trkpt><trkpt lat="32.330920" lon="77.159834"><ele>2824.6</ele></trkpt><trkpt lat="32.331007" lon="77.159836"><ele>2826.0</ele></trkpt><trkpt lat="32.331095" lon="77.159838"><ele>2827.5</ele></trkpt><trkpt lat="32.331182" lon="77.159841"><ele>2829.0</ele></trkpt><trkpt lat="32.331269" lon="77.159843"><ele>2830.7</ele></trkpt><trkpt lat="32.331357" lon="77.159845"><ele>2832.9</ele></trkpt><trkpt lat="32.331444" lon="77.159847"><ele>2835.2</ele></trkpt><trkpt lat="32.331531" lon="77.159850"><ele>2837.8</ele></trkpt><trkpt lat="32.331619" lon="77.159852"><ele>2840.8</ele></trkpt><trkpt lat="32.331706" lon="77.159854"><ele>2843.7</ele></trkpt><trkpt lat="32.331794" lon="77.159856"><ele>2846.0</ele></trkpt><trkpt lat="32.331881" lon="77.159858"><ele>2847.9</ele></trkpt><trkpt lat="32.331968" lon="77.159861"><ele>2849.8</ele></trkpt><trkpt lat="32.332056" lon="77.159863"><ele>2852.2</ele></trkpt><trkpt lat="32.332143" lon="77.159865"><ele>2854.9</ele></trkpt><trkpt lat="32.332208" lon="77.159919"><ele>2857.0</ele></trkpt><trkpt lat="32.332272" lon="77.159972"><ele>2859.4</ele></trkpt><trkpt lat="32.332337" lon="77.160026"><ele>2862.9</ele></trkpt><trkpt lat="32.332402" lon="77.160079"><ele>2866.6</ele></trkpt><trkpt lat="32.332467" lon="77.160133"><ele>2869.5</ele></trkpt><trkpt lat="32.332531" lon="77.160186"><ele>2870.6</ele></trkpt><trkpt lat="32.332596" lon="77.160240"><ele>2871.2</ele></trkpt><trkpt lat="32.332673" lon="77.160267"><ele>2872.8</ele></trkpt><trkpt lat="32.332749" lon="77.160295"><ele>2874.5</ele></trkpt><trkpt lat="32.332826" lon="77.160322"><ele>2876.0</ele></trkpt><trkpt lat="32.332903" lon="77.160349"><ele>2877.7</ele></trkpt><trkpt lat="32.332979" lon="77.160377"><ele>2879.7</ele></trkpt><trkpt lat="32.333056" lon="77.160404"><ele>2881.8</ele></trkpt><trkpt lat="32.333133" lon="77.160431"><ele>2884.2</ele></trkpt><trkpt lat="32.333209" lon="77.160459"><ele>2886.7</ele></trkpt><trkpt lat="32.333286" lon="77.160486"><ele>2889.2</ele></trkpt><trkpt lat="32.333356" lon="77.160467"><ele>2890.5</ele></trkpt><trkpt lat="32.333425" lon="77.160448"><ele>2891.8</ele></trkpt><trkpt lat="32.333495" lon="77.160428"><ele>2893.1</ele></trkpt><trkpt lat="32.333564" lon="77.160409"><ele>2894.7</ele></trkpt><trkpt lat="32.333614" lon="77.160471"><ele>2897.4</ele></trkpt><trkpt lat="32.333664" lon="77.160532"><ele>2900.1</ele></trkpt><trkpt lat="32.333715" lon="77.160594"><ele>2902.9</ele></trkpt><trkpt lat="32.333765" lon="77.160655"><ele>2905.8</ele></trkpt><trkpt lat="32.333815" lon="77.160717"><ele>2909.1</ele></trkpt><trkpt lat="32.333901" lon="77.160731"><ele>2912.9</ele></trkpt><trkpt lat="32.333986" lon="77.160745"><ele>2916.7</ele></trkpt><trkpt lat="32.334072" lon="77.160759"><ele>2920.2</ele></trkpt><trkpt lat="32.334158" lon="77.160774"><ele>2923.6</ele></trkpt><trkpt lat="32.334244" lon="77.160788"><ele>2926.9</ele></trkpt><trkpt lat="32.334329" lon="77.160802"><ele>2929.8</ele></trkpt><trkpt lat="32.334415" lon="77.160816"><ele>2932.7</ele></trkpt><trkpt lat="32.334400" lon="77.160868"><ele>2933.2</ele></trkpt><trkpt lat="32.334385" lon="77.160921"><ele>2933.7</ele></trkpt><trkpt lat="32.334456" lon="77.160953"><ele>2936.1</ele></trkpt><trkpt lat="32.334527" lon="77.160985"><ele>2938.4</ele></trkpt><trkpt lat="32.334597" lon="77.161018"><ele>2940.7</ele></trkpt><trkpt lat="32.334668" lon="77.161050"><ele>2942.9</ele></trkpt><trkpt lat="32.334739" lon="77.161082"><ele>2945.8</ele></trkpt><trkpt lat="32.334750" lon="77.161156"><ele>2948.7</ele></trkpt><trkpt lat="32.334762" lon="77.161229"><ele>2951.5</ele></trkpt><trkpt lat="32.334773" lon="77.161303"><ele>2954.3</ele></trkpt><trkpt lat="32.334845" lon="77.161345"><ele>2956.7</ele></trkpt><trkpt lat="32.334917" lon="77.161387"><ele>2959.7</ele></trkpt><trkpt lat="32.334990" lon="77.161429"><ele>2962.3</ele></trkpt><trkpt lat="32.335062" lon="77.161471"><ele>2964.4</ele></trkpt><trkpt lat="32.335134" lon="77.161514"><ele>2966.2</ele></trkpt><trkpt lat="32.335206" lon="77.161556"><ele>2967.9</ele></trkpt><trkpt lat="32.335279" lon="77.161598"><ele>2969.9</ele></trkpt><trkpt lat="32.335351" lon="77.161640"><ele>2974.5</ele></trkpt><trkpt lat="32.335423" lon="77.161682"><ele>2979.5</ele></trkpt><trkpt lat="32.335368" lon="77.161714"><ele>2979.4</ele></trkpt><trkpt lat="32.335312" lon="77.161747"><ele>2979.8</ele></trkpt><trkpt lat="32.335257" lon="77.161779"><ele>2980.8</ele></trkpt><trkpt lat="32.335333" lon="77.161816"><ele>2984.9</ele></trkpt><trkpt lat="32.335410" lon="77.161852"><ele>2988.8</ele></trkpt><trkpt lat="32.335487" lon="77.161889"><ele>2992.0</ele></trkpt><trkpt lat="32.335563" lon="77.161926"><ele>2994.5</ele></trkpt><trkpt lat="32.335574" lon="77.161996"><ele>2996.6</ele></trkpt><trkpt lat="32.335584" lon="77.162066"><ele>2997.7</ele></trkpt><trkpt lat="32.335595" lon="77.162136"><ele>2998.7</ele></trkpt><trkpt lat="32.335519" lon="77.162185"><ele>2999.6</ele></trkpt><trkpt lat="32.335442" lon="77.162235"><ele>3002.5</ele></trkpt><trkpt lat="32.335366" lon="77.162284"><ele>3007.1</ele></trkpt><trkpt lat="32.335290" lon="77.162334"><ele>3011.9</ele></trkpt><trkpt lat="32.335213" lon="77.162383"><ele>3015.4</ele></trkpt><trkpt lat="32.335137" lon="77.162432"><ele>3018.1</ele></trkpt><trkpt lat="32.335060" lon="77.162482"><ele>3020.5</ele></trkpt><trkpt lat="32.334984" lon="77.162531"><ele>3022.7</ele></trkpt><trkpt lat="32.334975" lon="77.162606"><ele>3024.7</ele></trkpt><trkpt lat="32.334965" lon="77.162680"><ele>3026.6</ele></trkpt><trkpt lat="32.334956" lon="77.162755"><ele>3028.4</ele></trkpt><trkpt lat="32.334885" lon="77.162733"><ele>3026.7</ele></trkpt><trkpt lat="32.334813" lon="77.162710"><ele>3025.0</ele></trkpt><trkpt lat="32.334756" lon="77.162785"><ele>3025.7</ele></trkpt><trkpt lat="32.334699" lon="77.162859"><ele>3025.1</ele></trkpt><trkpt lat="32.334642" lon="77.162934"><ele>3023.0</ele></trkpt><trkpt lat="32.334585" lon="77.163008"><ele>3020.9</ele></trkpt><trkpt lat="32.334528" lon="77.163083"><ele>3018.9</ele></trkpt><trkpt lat="32.334472" lon="77.163157"><ele>3017.5</ele></trkpt><trkpt lat="32.334415" lon="77.163232"><ele>3018.1</ele></trkpt><trkpt lat="32.334358" lon="77.163306"><ele>3018.8</ele></trkpt><trkpt lat="32.334301" lon="77.163381"><ele>3019.4</ele></trkpt><trkpt lat="32.334244" lon="77.163455"><ele>3020.0</ele></trkpt><trkpt lat="32.334187" lon="77.163530"><ele>3021.1</ele></trkpt><trkpt lat="32.334144" lon="77.163619"><ele>3022.7</ele></trkpt><trkpt lat="32.334101" lon="77.163709"><ele>3024.1</ele></trkpt><trkpt lat="32.334058" lon="77.163798"><ele>3026.5</ele></trkpt><trkpt lat="32.334015" lon="77.163888"><ele>3029.4</ele></trkpt><trkpt lat="32.333971" lon="77.163977"><ele>3032.5</ele></trkpt><trkpt lat="32.333928" lon="77.164067"><ele>3036.5</ele></trkpt><trkpt lat="32.333885" lon="77.164156"><ele>3041.4</ele></trkpt><trkpt lat="32.333842" lon="77.164246"><ele>3046.6</ele></trkpt><trkpt lat="32.333799" lon="77.164335"><ele>3051.9</ele></trkpt><trkpt lat="32.333719" lon="77.164328"><ele>3054.6</ele></trkpt><trkpt lat="32.333640" lon="77.164321"><ele>3055.5</ele></trkpt><trkpt lat="32.333560" lon="77.164314"><ele>3055.6</ele></trkpt><trkpt lat="32.333614" lon="77.164396"><ele>3057.1</ele></trkpt><trkpt lat="32.333668" lon="77.164478"><ele>3059.2</ele></trkpt><trkpt lat="32.333722" lon="77.164559"><ele>3060.9</ele></trkpt><trkpt lat="32.333776" lon="77.164641"><ele>3061.8</ele></trkpt><trkpt lat="32.333830" lon="77.164723"><ele>3062.1</ele></trkpt><trkpt lat="32.333884" lon="77.164805"><ele>3062.9</ele></trkpt><trkpt lat="32.333938" lon="77.164886"><ele>3064.5</ele></trkpt><trkpt lat="32.333992" lon="77.164968"><ele>3065.2</ele></trkpt><trkpt lat="32.334046" lon="77.165050"><ele>3066.5</ele></trkpt><trkpt lat="32.334100" lon="77.165132"><ele>3068.9</ele></trkpt><trkpt lat="32.334154" lon="77.165214"><ele>3072.4</ele></trkpt><trkpt lat="32.334208" lon="77.165295"><ele>3076.1</ele></trkpt><trkpt lat="32.334262" lon="77.165377"><ele>3079.1</ele></trkpt><trkpt lat="32.334316" lon="77.165459"><ele>3082.7</ele></trkpt><trkpt lat="32.334370" lon="77.165541"><ele>3087.0</ele></trkpt><trkpt lat="32.334424" lon="77.165622"><ele>3091.6</ele></trkpt><trkpt lat="32.334478" lon="77.165704"><ele>3095.5</ele></trkpt><trkpt lat="32.334532" lon="77.165786"><ele>3099.3</ele></trkpt><trkpt lat="32.334452" lon="77.165824"><ele>3101.4</ele></trkpt><trkpt lat="32.334371" lon="77.165862"><ele>3102.1</ele></trkpt><trkpt lat="32.334291" lon="77.165900"><ele>3102.5</ele></trkpt><trkpt lat="32.334361" lon="77.165912"><ele>3103.5</ele></trkpt><trkpt lat="32.334431" lon="77.165923"><ele>3104.4</ele></trkpt><trkpt lat="32.334501" lon="77.165935"><ele>3104.9</ele></trkpt><trkpt lat="32.334571" lon="77.165947"><ele>3105.5</ele></trkpt><trkpt lat="32.334618" lon="77.166017"><ele>3108.2</ele></trkpt><trkpt lat="32.334665" lon="77.166088"><ele>3111.3</ele></trkpt><trkpt lat="32.334711" lon="77.166158"><ele>3114.7</ele></trkpt><trkpt lat="32.334758" lon="77.166228"><ele>3117.9</ele></trkpt><trkpt lat="32.334805" lon="77.166299"><ele>3120.9</ele></trkpt><trkpt lat="32.334852" lon="77.166369"><ele>3123.8</ele></trkpt><trkpt lat="32.334931" lon="77.166384"><ele>3125.3</ele></trkpt><trkpt lat="32.335009" lon="77.166400"><ele>3127.5</ele></trkpt><trkpt lat="32.335088" lon="77.166415"><ele>3129.8</ele></trkpt><trkpt lat="32.335166" lon="77.166430"><ele>3132.1</ele></trkpt><trkpt lat="32.335245" lon="77.166445"><ele>3134.6</ele></trkpt><trkpt lat="32.335323" lon="77.166461"><ele>3137.4</ele></trkpt><trkpt lat="32.335402" lon="77.166476"><ele>3140.1</ele></trkpt><trkpt lat="32.335437" lon="77.166558"><ele>3144.2</ele></trkpt><trkpt lat="32.335472" lon="77.166640"><ele>3148.2</ele></trkpt><trkpt lat="32.335507" lon="77.166721"><ele>3152.2</ele></trkpt><trkpt lat="32.335542" lon="77.166803"><ele>3156.4</ele></trkpt><trkpt lat="32.335577" lon="77.166885"><ele>3161.0</ele></trkpt><trkpt lat="32.335612" lon="77.166967"><ele>3165.9</ele></trkpt><trkpt lat="32.335694" lon="77.166944"><ele>3167.8</ele></trkpt><trkpt lat="32.335775" lon="77.166922"><ele>3170.2</ele></trkpt><trkpt lat="32.335857" lon="77.166899"><ele>3172.7</ele></trkpt><trkpt lat="32.335939" lon="77.166876"><ele>3175.1</ele></trkpt><trkpt lat="32.336021" lon="77.166854"><ele>3177.3</ele></trkpt><trkpt lat="32.336102" lon="77.166831"><ele>3179.8</ele></trkpt><trkpt lat="32.336184" lon="77.166809"><ele>3182.6</ele></trkpt><trkpt lat="32.336266" lon="77.166786"><ele>3184.3</ele></trkpt><trkpt lat="32.336348" lon="77.166763"><ele>3185.8</ele></trkpt><trkpt lat="32.336429" lon="77.166741"><ele>3187.4</ele></trkpt><trkpt lat="32.336511" lon="77.166718"><ele>3189.0</ele></trkpt><trkpt lat="32.336600" lon="77.166731"><ele>3191.8</ele></trkpt><trkpt lat="32.336689" lon="77.166744"><ele>3194.6</ele></trkpt><trkpt lat="32.336778" lon="77.166758"><ele>3198.6</ele></trkpt><trkpt lat="32.336867" lon="77.166771"><ele>3203.0</ele></trkpt><trkpt lat="32.336873" lon="77.166873"><ele>3208.0</ele></trkpt><trkpt lat="32.336879" lon="77.166976"><ele>3213.2</ele></trkpt><trkpt lat="32.336884" lon="77.167078"><ele>3218.4</ele></trkpt><trkpt lat="32.336890" lon="77.167181"><ele>3222.6</ele></trkpt><trkpt lat="32.336896" lon="77.167283"><ele>3226.7</ele></trkpt><trkpt lat="32.336911" lon="77.167213"><ele>3224.9</ele></trkpt><trkpt lat="32.336926" lon="77.167143"><ele>3223.2</ele></trkpt><trkpt lat="32.336962" lon="77.167239"><ele>3228.0</ele></trkpt><trkpt lat="32.336998" lon="77.167335"><ele>3231.8</ele></trkpt><trkpt lat="32.336927" lon="77.167398"><ele>3232.0</ele></trkpt><trkpt lat="32.336856" lon="77.167461"><ele>3231.5</ele></trkpt><trkpt lat="32.336863" lon="77.167557"><ele>3235.0</ele></trkpt><trkpt lat="32.336871" lon="77.167653"><ele>3238.3</ele></trkpt><trkpt lat="32.336878" lon="77.167749"><ele>3241.2</ele></trkpt><trkpt lat="32.336960" lon="77.167745"><ele>3241.7</ele></trkpt><trkpt lat="32.337043" lon="77.167742"><ele>3242.1</ele></trkpt><trkpt lat="32.337125" lon="77.167738"><ele>3242.5</ele></trkpt><trkpt lat="32.337099" lon="77.167831"><ele>3245.6</ele></trkpt><trkpt lat="32.337074" lon="77.167924"><ele>3248.6</ele></trkpt><trkpt lat="32.337048" lon="77.168016"><ele>3250.8</ele></trkpt><trkpt lat="32.337022" lon="77.168109"><ele>3251.6</ele></trkpt><trkpt lat="32.337079" lon="77.168161"><ele>3252.6</ele></trkpt><trkpt lat="32.337136" lon="77.168214"><ele>3253.5</ele></trkpt><trkpt lat="32.337193" lon="77.168266"><ele>3254.5</ele></trkpt><trkpt lat="32.337250" lon="77.168318"><ele>3256.3</ele></trkpt><trkpt lat="32.337326" lon="77.168336"><ele>3258.2</ele></trkpt><trkpt lat="32.337403" lon="77.168353"><ele>3260.2</ele></trkpt><trkpt lat="32.337479" lon="77.168371"><ele>3262.1</ele></trkpt><trkpt lat="32.337555" lon="77.168389"><ele>3263.8</ele></trkpt><trkpt lat="32.337632" lon="77.168406"><ele>3265.7</ele></trkpt><trkpt lat="32.337708" lon="77.168424"><ele>3267.8</ele></trkpt><trkpt lat="32.337787" lon="77.168389"><ele>3268.5</ele></trkpt><trkpt lat="32.337865" lon="77.168354"><ele>3269.0</ele></trkpt><trkpt lat="32.337944" lon="77.168319"><ele>3269.3</ele></trkpt><trkpt lat="32.338023" lon="77.168284"><ele>3270.0</ele></trkpt><trkpt lat="32.338101" lon="77.168250"><ele>3270.8</ele></trkpt><trkpt lat="32.338180" lon="77.168215"><ele>3271.5</ele></trkpt><trkpt lat="32.338259" lon="77.168180"><ele>3271.8</ele></trkpt><trkpt lat="32.338337" lon="77.168145"><ele>3272.3</ele></trkpt><trkpt lat="32.338416" lon="77.168110"><ele>3272.9</ele></trkpt><trkpt lat="32.338493" lon="77.168133"><ele>3275.3</ele></trkpt><trkpt lat="32.338570" lon="77.168157"><ele>3277.2</ele></trkpt><trkpt lat="32.338647" lon="77.168180"><ele>3279.1</ele></trkpt><trkpt lat="32.338724" lon="77.168203"><ele>3280.8</ele></trkpt><trkpt lat="32.338801" lon="77.168226"><ele>3282.6</ele></trkpt><trkpt lat="32.338878" lon="77.168250"><ele>3284.5</ele></trkpt><trkpt lat="32.338955" lon="77.168273"><ele>3286.3</ele></trkpt><trkpt lat="32.339000" lon="77.168352"><ele>3289.3</ele></trkpt><trkpt lat="32.339046" lon="77.168430"><ele>3292.5</ele></trkpt><trkpt lat="32.339091" lon="77.168509"><ele>3295.3</ele></trkpt><trkpt lat="32.339136" lon="77.168588"><ele>3297.7</ele></trkpt><trkpt lat="32.339182" lon="77.168666"><ele>3300.3</ele></trkpt><trkpt lat="32.339227" lon="77.168745"><ele>3303.7</ele></trkpt><trkpt lat="32.339272" lon="77.168824"><ele>3307.2</ele></trkpt><trkpt lat="32.339318" lon="77.168902"><ele>3310.3</ele></trkpt><trkpt lat="32.339363" lon="77.168981"><ele>3313.0</ele></trkpt><trkpt lat="32.339408" lon="77.168965"><ele>3312.7</ele></trkpt><trkpt lat="32.339452" lon="77.168949"><ele>3312.5</ele></trkpt><trkpt lat="32.339365" lon="77.168971"><ele>3312.7</ele></trkpt><trkpt lat="32.339277" lon="77.168993"><ele>3313.1</ele></trkpt><trkpt lat="32.339189" lon="77.169015"><ele>3313.5</ele></trkpt><trkpt lat="32.339102" lon="77.169037"><ele>3313.8</ele></trkpt><trkpt lat="32.339178" lon="77.169016"><ele>3313.5</ele></trkpt><trkpt lat="32.339254" lon="77.168994"><ele>3313.0</ele></trkpt><trkpt lat="32.339330" lon="77.168973"><ele>3312.6</ele></trkpt><trkpt lat="32.339406" lon="77.168951"><ele>3312.3</ele></trkpt><trkpt lat="32.339448" lon="77.169031"><ele>3314.6</ele></trkpt><trkpt lat="32.339491" lon="77.169110"><ele>3317.4</ele></trkpt><trkpt lat="32.339533" lon="77.169190"><ele>3320.3</ele></trkpt><trkpt lat="32.339575" lon="77.169269"><ele>3323.5</ele></trkpt><trkpt lat="32.339617" lon="77.169349"><ele>3327.3</ele></trkpt><trkpt lat="32.339660" lon="77.169428"><ele>3330.9</ele></trkpt><trkpt lat="32.339702" lon="77.169508"><ele>3334.2</ele></trkpt><trkpt lat="32.339711" lon="77.169598"><ele>3337.6</ele></trkpt><trkpt lat="32.339720" lon="77.169687"><ele>3341.4</ele></trkpt><trkpt lat="32.339728" lon="77.169777"><ele>3345.1</ele></trkpt><trkpt lat="32.339737" lon="77.169866"><ele>3348.6</ele></trkpt><trkpt lat="32.339746" lon="77.169956"><ele>3351.5</ele></trkpt><trkpt lat="32.339813" lon="77.170027"><ele>3354.6</ele></trkpt><trkpt lat="32.339879" lon="77.170097"><ele>3357.4</ele></trkpt><trkpt lat="32.339946" lon="77.170167"><ele>3360.1</ele></trkpt><trkpt lat="32.340013" lon="77.170238"><ele>3361.4</ele></trkpt><trkpt lat="32.340014" lon="77.170339"><ele>3363.7</ele></trkpt><trkpt lat="32.340015" lon="77.170440"><ele>3366.0</ele></trkpt><trkpt lat="32.340016" lon="77.170541"><ele>3368.3</ele></trkpt><trkpt lat="32.340017" lon="77.170642"><ele>3370.6</ele></trkpt><trkpt lat="32.340017" lon="77.170743"><ele>3373.0</ele></trkpt><trkpt lat="32.340018" lon="77.170844"><ele>3374.5</ele></trkpt><trkpt lat="32.340019" lon="77.170945"><ele>3376.0</ele></trkpt><trkpt lat="32.340020" lon="77.171046"><ele>3377.6</ele></trkpt><trkpt lat="32.340065" lon="77.171127"><ele>3379.2</ele></trkpt><trkpt lat="32.340110" lon="77.171208"><ele>3381.0</ele></trkpt><trkpt lat="32.340155" lon="77.171289"><ele>3382.8</ele></trkpt><trkpt lat="32.340200" lon="77.171370"><ele>3384.8</ele></trkpt><trkpt lat="32.340245" lon="77.171451"><ele>3387.0</ele></trkpt><trkpt lat="32.340322" lon="77.171501"><ele>3389.4</ele></trkpt><trkpt lat="32.340398" lon="77.171552"><ele>3391.8</ele></trkpt><trkpt lat="32.340475" lon="77.171602"><ele>3394.2</ele></trkpt><trkpt lat="32.340551" lon="77.171653"><ele>3396.7</ele></trkpt><trkpt lat="32.340628" lon="77.171703"><ele>3398.9</ele></trkpt><trkpt lat="32.340684" lon="77.171779"><ele>3400.9</ele></trkpt><trkpt lat="32.340739" lon="77.171855"><ele>3403.1</ele></trkpt><trkpt lat="32.340795" lon="77.171931"><ele>3405.8</ele></trkpt><trkpt lat="32.340851" lon="77.172008"><ele>3408.5</ele></trkpt><trkpt lat="32.340907" lon="77.172084"><ele>3410.9</ele></trkpt><trkpt lat="32.340963" lon="77.172160"><ele>3413.0</ele></trkpt><trkpt lat="32.341018" lon="77.172236"><ele>3415.1</ele></trkpt><trkpt lat="32.341074" lon="77.172312"><ele>3417.3</ele></trkpt><trkpt lat="32.341143" lon="77.172323"><ele>3419.2</ele></trkpt><trkpt lat="32.341212" lon="77.172334"><ele>3421.1</ele></trkpt><trkpt lat="32.341282" lon="77.172345"><ele>3422.8</ele></trkpt><trkpt lat="32.341351" lon="77.172356"><ele>3424.4</ele></trkpt><trkpt lat="32.341394" lon="77.172418"><ele>3426.0</ele></trkpt><trkpt lat="32.341437" lon="77.172481"><ele>3427.5</ele></trkpt><trkpt lat="32.341481" lon="77.172543"><ele>3428.0</ele></trkpt><trkpt lat="32.341524" lon="77.172605"><ele>3428.0</ele></trkpt><trkpt lat="32.341598" lon="77.172635"><ele>3427.5</ele></trkpt><trkpt lat="32.341671" lon="77.172665"><ele>3426.9</ele></trkpt><trkpt lat="32.341745" lon="77.172696"><ele>3427.0</ele></trkpt><trkpt lat="32.341818" lon="77.172726"><ele>3427.2</ele></trkpt><trkpt lat="32.341892" lon="77.172756"><ele>3427.5</ele></trkpt><trkpt lat="32.341937" lon="77.172822"><ele>3426.8</ele></trkpt><trkpt lat="32.341983" lon="77.172888"><ele>3425.4</ele></trkpt><trkpt lat="32.342028" lon="77.172954"><ele>3424.9</ele></trkpt><trkpt lat="32.342073" lon="77.173020"><ele>3424.8</ele></trkpt><trkpt lat="32.342151" lon="77.173073"><ele>3424.9</ele></trkpt><trkpt lat="32.342229" lon="77.173126"><ele>3425.6</ele></trkpt><trkpt lat="32.342307" lon="77.173179"><ele>3426.5</ele></trkpt><trkpt lat="32.342385" lon="77.173231"><ele>3427.7</ele></trkpt><trkpt lat="32.342463" lon="77.173284"><ele>3429.3</ele></trkpt><trkpt lat="32.342541" lon="77.173337"><ele>3431.5</ele></trkpt><trkpt lat="32.342619" lon="77.173390"><ele>3433.6</ele></trkpt><trkpt lat="32.342697" lon="77.173443"><ele>3435.6</ele></trkpt><trkpt lat="32.342775" lon="77.173496"><ele>3437.8</ele></trkpt><trkpt lat="32.342853" lon="77.173548"><ele>3440.2</ele></trkpt><trkpt lat="32.342931" lon="77.173601"><ele>3442.8</ele></trkpt><trkpt lat="32.343009" lon="77.173654"><ele>3445.8</ele></trkpt><trkpt lat="32.343087" lon="77.173707"><ele>3448.9</ele></trkpt><trkpt lat="32.343142" lon="77.173790"><ele>3452.1</ele></trkpt><trkpt lat="32.343196" lon="77.173874"><ele>3456.2</ele></trkpt><trkpt lat="32.343251" lon="77.173957"><ele>3460.8</ele></trkpt><trkpt lat="32.343306" lon="77.174040"><ele>3465.3</ele></trkpt><trkpt lat="32.343361" lon="77.174124"><ele>3469.7</ele></trkpt><trkpt lat="32.343415" lon="77.174207"><ele>3473.5</ele></trkpt><trkpt lat="32.343470" lon="77.174290"><ele>3477.1</ele></trkpt><trkpt lat="32.343525" lon="77.174374"><ele>3480.6</ele></trkpt><trkpt lat="32.343580" lon="77.174457"><ele>3484.1</ele></trkpt><trkpt lat="32.343635" lon="77.174540"><ele>3487.3</ele></trkpt><trkpt lat="32.343689" lon="77.174624"><ele>3490.7</ele></trkpt><trkpt lat="32.343744" lon="77.174707"><ele>3493.7</ele></trkpt><trkpt lat="32.343813" lon="77.174762"><ele>3496.1</ele></trkpt><trkpt lat="32.343882" lon="77.174818"><ele>3498.5</ele></trkpt><trkpt lat="32.343951" lon="77.174873"><ele>3501.1</ele></trkpt><trkpt lat="32.344020" lon="77.174928"><ele>3504.1</ele></trkpt><trkpt lat="32.344089" lon="77.174984"><ele>3507.0</ele></trkpt><trkpt lat="32.344158" lon="77.175039"><ele>3509.9</ele></trkpt><trkpt lat="32.344156" lon="77.175140"><ele>3512.8</ele></trkpt><trkpt lat="32.344154" lon="77.175242"><ele>3515.6</ele></trkpt><trkpt lat="32.344217" lon="77.175293"><ele>3518.4</ele></trkpt><trkpt lat="32.344280" lon="77.175345"><ele>3521.5</ele></trkpt><trkpt lat="32.344343" lon="77.175396"><ele>3524.4</ele></trkpt><trkpt lat="32.344405" lon="77.175447"><ele>3527.2</ele></trkpt><trkpt lat="32.344468" lon="77.175499"><ele>3529.7</ele></trkpt><trkpt lat="32.344531" lon="77.175550"><ele>3532.2</ele></trkpt><trkpt lat="32.344597" lon="77.175497"><ele>3532.2</ele></trkpt><trkpt lat="32.344662" lon="77.175444"><ele>3532.2</ele></trkpt><trkpt lat="32.344728" lon="77.175392"><ele>3532.1</ele></trkpt><trkpt lat="32.344794" lon="77.175339"><ele>3531.9</ele></trkpt><trkpt lat="32.344859" lon="77.175286"><ele>3532.2</ele></trkpt><trkpt lat="32.344925" lon="77.175233"><ele>3532.7</ele></trkpt><trkpt lat="32.344960" lon="77.175331"><ele>3535.5</ele></trkpt><trkpt lat="32.344995" lon="77.175429"><ele>3539.8</ele></trkpt><trkpt lat="32.345031" lon="77.175526"><ele>3544.3</ele></trkpt><trkpt lat="32.345066" lon="77.175624"><ele>3548.5</ele></trkpt><trkpt lat="32.345101" lon="77.175722"><ele>3552.3</ele></trkpt><trkpt lat="32.345161" lon="77.175734"><ele>3555.0</ele></trkpt><trkpt lat="32.345222" lon="77.175745"><ele>3558.0</ele></trkpt><trkpt lat="32.345282" lon="77.175757"><ele>3561.5</ele></trkpt><trkpt lat="32.345326" lon="77.175683"><ele>3562.7</ele></trkpt><trkpt lat="32.345371" lon="77.175609"><ele>3563.7</ele></trkpt><trkpt lat="32.345415" lon="77.175535"><ele>3564.8</ele></trkpt><trkpt lat="32.345459" lon="77.175462"><ele>3565.7</ele></trkpt><trkpt lat="32.345504" lon="77.175388"><ele>3566.2</ele></trkpt><trkpt lat="32.345548" lon="77.175314"><ele>3566.3</ele></trkpt><trkpt lat="32.345621" lon="77.175361"><ele>3570.8</ele></trkpt><trkpt lat="32.345693" lon="77.175408"><ele>3575.1</ele></trkpt><trkpt lat="32.345765" lon="77.175454"><ele>3578.6</ele></trkpt><trkpt lat="32.345838" lon="77.175501"><ele>3581.8</ele></trkpt><trkpt lat="32.345911" lon="77.175548"><ele>3585.2</ele></trkpt><trkpt lat="32.345983" lon="77.175594"><ele>3588.2</ele></trkpt><trkpt lat="32.346055" lon="77.175641"><ele>3590.7</ele></trkpt><trkpt lat="32.346128" lon="77.175688"><ele>3593.2</ele></trkpt><trkpt lat="32.346145" lon="77.175783"><ele>3596.4</ele></trkpt><trkpt lat="32.346162" lon="77.175878"><ele>3599.6</ele></trkpt><trkpt lat="32.346178" lon="77.175973"><ele>3602.8</ele></trkpt><trkpt lat="32.346195" lon="77.176068"><ele>3605.1</ele></trkpt><trkpt lat="32.346212" lon="77.176164"><ele>3607.3</ele></trkpt><trkpt lat="32.346229" lon="77.176259"><ele>3609.6</ele></trkpt><trkpt lat="32.346246" lon="77.176354"><ele>3610.6</ele></trkpt><trkpt lat="32.346262" lon="77.176449"><ele>3611.3</ele></trkpt><trkpt lat="32.346279" lon="77.176544"><ele>3612.3</ele></trkpt><trkpt lat="32.346296" lon="77.176639"><ele>3612.3</ele></trkpt><trkpt lat="32.346364" lon="77.176636"><ele>3616.3</ele></trkpt><trkpt lat="32.346432" lon="77.176632"><ele>3620.2</ele></trkpt><trkpt lat="32.346499" lon="77.176629"><ele>3623.6</ele></trkpt><trkpt lat="32.346567" lon="77.176626"><ele>3626.8</ele></trkpt><trkpt lat="32.346633" lon="77.176687"><ele>3630.1</ele></trkpt><trkpt lat="32.346699" lon="77.176749"><ele>3633.8</ele></trkpt><trkpt lat="32.346765" lon="77.176810"><ele>3636.4</ele></trkpt><trkpt lat="32.346831" lon="77.176871"><ele>3639.4</ele></trkpt><trkpt lat="32.346910" lon="77.176901"><ele>3642.7</ele></trkpt><trkpt lat="32.346988" lon="77.176930"><ele>3644.7</ele></trkpt><trkpt lat="32.347067" lon="77.176960"><ele>3646.5</ele></trkpt><trkpt lat="32.347145" lon="77.176990"><ele>3648.5</ele></trkpt><trkpt lat="32.347224" lon="77.177020"><ele>3650.9</ele></trkpt><trkpt lat="32.347302" lon="77.177050"><ele>3654.2</ele></trkpt><trkpt lat="32.347381" lon="77.177079"><ele>3657.6</ele></trkpt><trkpt lat="32.347460" lon="77.177109"><ele>3661.2</ele></trkpt><trkpt lat="32.347538" lon="77.177139"><ele>3664.9</ele></trkpt><trkpt lat="32.347617" lon="77.177168"><ele>3668.9</ele></trkpt><trkpt lat="32.347695" lon="77.177198"><ele>3673.1</ele></trkpt><trkpt lat="32.347774" lon="77.177228"><ele>3677.5</ele></trkpt><trkpt lat="32.347856" lon="77.177226"><ele>3682.2</ele></trkpt><trkpt lat="32.347938" lon="77.177224"><ele>3686.7</ele></trkpt><trkpt lat="32.348020" lon="77.177222"><ele>3691.1</ele></trkpt><trkpt lat="32.348102" lon="77.177220"><ele>3695.5</ele></trkpt><trkpt lat="32.348184" lon="77.177218"><ele>3700.0</ele></trkpt><trkpt lat="32.348266" lon="77.177216"><ele>3704.3</ele></trkpt><trkpt lat="32.348348" lon="77.177214"><ele>3708.6</ele></trkpt><trkpt lat="32.348419" lon="77.177149"><ele>3710.6</ele></trkpt><trkpt lat="32.348490" lon="77.177085"><ele>3712.6</ele></trkpt><trkpt lat="32.348562" lon="77.177020"><ele>3713.9</ele></trkpt><trkpt lat="32.348633" lon="77.176955"><ele>3715.1</ele></trkpt><trkpt lat="32.348688" lon="77.177017"><ele>3719.2</ele></trkpt><trkpt lat="32.348743" lon="77.177079"><ele>3723.3</ele></trkpt><trkpt lat="32.348808" lon="77.177039"><ele>3724.6</ele></trkpt><trkpt lat="32.348873" lon="77.176999"><ele>3725.7</ele></trkpt><trkpt lat="32.348937" lon="77.176959"><ele>3726.8</ele></trkpt><trkpt lat="32.349002" lon="77.176919"><ele>3727.8</ele></trkpt><trkpt lat="32.349067" lon="77.176879"><ele>3728.5</ele></trkpt><trkpt lat="32.349144" lon="77.176882"><ele>3731.0</ele></trkpt><trkpt lat="32.349220" lon="77.176884"><ele>3733.6</ele></trkpt><trkpt lat="32.349297" lon="77.176886"><ele>3735.4</ele></trkpt><trkpt lat="32.349374" lon="77.176889"><ele>3737.1</ele></trkpt><trkpt lat="32.349450" lon="77.176892"><ele>3738.7</ele></trkpt><trkpt lat="32.349527" lon="77.176894"><ele>3739.9</ele></trkpt><trkpt lat="32.349555" lon="77.176967"><ele>3743.7</ele></trkpt><trkpt lat="32.349584" lon="77.177040"><ele>3747.5</ele></trkpt><trkpt lat="32.349612" lon="77.177113"><ele>3751.4</ele></trkpt><trkpt lat="32.349581" lon="77.177177"><ele>3754.4</ele></trkpt><trkpt lat="32.349550" lon="77.177242"><ele>3757.3</ele></trkpt><trkpt lat="32.349519" lon="77.177306"><ele>3759.5</ele></trkpt><trkpt lat="32.349600" lon="77.177347"><ele>3762.5</ele></trkpt><trkpt lat="32.349680" lon="77.177389"><ele>3765.9</ele></trkpt><trkpt lat="32.349761" lon="77.177430"><ele>3769.7</ele></trkpt><trkpt lat="32.349841" lon="77.177472"><ele>3773.7</ele></trkpt><trkpt lat="32.349922" lon="77.177513"><ele>3777.8</ele></trkpt><trkpt lat="32.349908" lon="77.177618"><ele>3782.0</ele></trkpt><trkpt lat="32.349894" lon="77.177722"><ele>3785.3</ele></trkpt><trkpt lat="32.349880" lon="77.177827"><ele>3788.4</ele></trkpt><trkpt lat="32.349958" lon="77.177850"><ele>3791.8</ele></trkpt><trkpt lat="32.350037" lon="77.177874"><ele>3794.3</ele></trkpt><trkpt lat="32.350115" lon="77.177898"><ele>3796.4</ele></trkpt><trkpt lat="32.350193" lon="77.177921"><ele>3798.7</ele></trkpt><trkpt lat="32.350271" lon="77.177944"><ele>3801.5</ele></trkpt><trkpt lat="32.350350" lon="77.177968"><ele>3804.9</ele></trkpt><trkpt lat="32.350428" lon="77.177992"><ele>3808.1</ele></trkpt><trkpt lat="32.350506" lon="77.178015"><ele>3811.5</ele></trkpt><trkpt lat="32.350473" lon="77.178105"><ele>3813.7</ele></trkpt><trkpt lat="32.350439" lon="77.178194"><ele>3816.4</ele></trkpt><trkpt lat="32.350406" lon="77.178284"><ele>3819.3</ele></trkpt><trkpt lat="32.350372" lon="77.178373"><ele>3822.2</ele></trkpt><trkpt lat="32.350339" lon="77.178463"><ele>3825.2</ele></trkpt><trkpt lat="32.350305" lon="77.178552"><ele>3827.4</ele></trkpt><trkpt lat="32.350272" lon="77.178642"><ele>3829.1</ele></trkpt><trkpt lat="32.350348" lon="77.178694"><ele>3832.2</ele></trkpt><trkpt lat="32.350425" lon="77.178747"><ele>3835.5</ele></trkpt><trkpt lat="32.350502" lon="77.178799"><ele>3838.6</ele></trkpt><trkpt lat="32.350578" lon="77.178852"><ele>3841.5</ele></trkpt><trkpt lat="32.350655" lon="77.178905"><ele>3844.6</ele></trkpt><trkpt lat="32.350731" lon="77.178957"><ele>3848.0</ele></trkpt><trkpt lat="32.350703" lon="77.179042"><ele>3850.5</ele></trkpt><trkpt lat="32.350676" lon="77.179127"><ele>3852.9</ele></trkpt><trkpt lat="32.350648" lon="77.179213"><ele>3855.1</ele></trkpt><trkpt lat="32.350620" lon="77.179298"><ele>3857.2</ele></trkpt><trkpt lat="32.350593" lon="77.179383"><ele>3859.1</ele></trkpt><trkpt lat="32.350565" lon="77.179468"><ele>3859.7</ele></trkpt><trkpt lat="32.350605" lon="77.179561"><ele>3863.4</ele></trkpt><trkpt lat="32.350644" lon="77.179653"><ele>3867.7</ele></trkpt><trkpt lat="32.350684" lon="77.179746"><ele>3871.4</ele></trkpt><trkpt lat="32.350644" lon="77.179778"><ele>3869.1</ele></trkpt><trkpt lat="32.350603" lon="77.179811"><ele>3866.6</ele></trkpt><trkpt lat="32.350681" lon="77.179779"><ele>3871.5</ele></trkpt><trkpt lat="32.350759" lon="77.179747"><ele>3875.1</ele></trkpt><trkpt lat="32.350821" lon="77.179792"><ele>3878.4</ele></trkpt><trkpt lat="32.350883" lon="77.179837"><ele>3882.1</ele></trkpt><trkpt lat="32.350946" lon="77.179881"><ele>3886.3</ele></trkpt><trkpt lat="32.351008" lon="77.179926"><ele>3890.6</ele></trkpt><trkpt lat="32.351070" lon="77.179971"><ele>3894.9</ele></trkpt><trkpt lat="32.351107" lon="77.180059"><ele>3898.7</ele></trkpt><trkpt lat="32.351144" lon="77.180147"><ele>3902.4</ele></trkpt><trkpt lat="32.351182" lon="77.180234"><ele>3906.5</ele></trkpt><trkpt lat="32.351219" lon="77.180322"><ele>3910.6</ele></trkpt><trkpt lat="32.351256" lon="77.180410"><ele>3913.9</ele></trkpt><trkpt lat="32.351293" lon="77.180498"><ele>3917.5</ele></trkpt><trkpt lat="32.351330" lon="77.180586"><ele>3921.5</ele></trkpt><trkpt lat="32.351367" lon="77.180674"><ele>3925.7</ele></trkpt><trkpt lat="32.351405" lon="77.180761"><ele>3929.7</ele></trkpt><trkpt lat="32.351442" lon="77.180849"><ele>3933.2</ele></trkpt><trkpt lat="32.351479" lon="77.180937"><ele>3937.4</ele></trkpt><trkpt lat="32.351541" lon="77.180860"><ele>3940.1</ele></trkpt><trkpt lat="32.351603" lon="77.180784"><ele>3943.0</ele></trkpt><trkpt lat="32.351674" lon="77.180811"><ele>3948.4</ele></trkpt><trkpt lat="32.351745" lon="77.180839"><ele>3953.3</ele></trkpt><trkpt lat="32.351816" lon="77.180866"><ele>3957.7</ele></trkpt><trkpt lat="32.351887" lon="77.180894"><ele>3962.2</ele></trkpt><trkpt lat="32.351958" lon="77.180921"><ele>3966.9</ele></trkpt><trkpt lat="32.351987" lon="77.180989"><ele>3968.8</ele></trkpt><trkpt lat="32.352017" lon="77.181057"><ele>3970.5</ele></trkpt><trkpt lat="32.352046" lon="77.181125"><ele>3972.5</ele></trkpt><trkpt lat="32.352027" lon="77.181199"><ele>3974.2</ele></trkpt><trkpt lat="32.352007" lon="77.181272"><ele>3975.7</ele></trkpt><trkpt lat="32.351988" lon="77.181346"><ele>3976.9</ele></trkpt><trkpt lat="32.352024" lon="77.181438"><ele>3979.8</ele></trkpt><trkpt lat="32.352061" lon="77.181529"><ele>3983.4</ele></trkpt><trkpt lat="32.352097" lon="77.181621"><ele>3988.8</ele></trkpt><trkpt lat="32.352134" lon="77.181712"><ele>3994.0</ele></trkpt><trkpt lat="32.352170" lon="77.181804"><ele>3999.1</ele></trkpt><trkpt lat="32.352137" lon="77.181880"><ele>4001.9</ele></trkpt><trkpt lat="32.352104" lon="77.181956"><ele>4004.8</ele></trkpt><trkpt lat="32.352072" lon="77.182031"><ele>4007.7</ele></trkpt><trkpt lat="32.352039" lon="77.182107"><ele>4010.5</ele></trkpt><trkpt lat="32.352006" lon="77.182183"><ele>4012.6</ele></trkpt><trkpt lat="32.352040" lon="77.182273"><ele>4017.0</ele></trkpt><trkpt lat="32.352073" lon="77.182362"><ele>4021.6</ele></trkpt><trkpt lat="32.352107" lon="77.182452"><ele>4026.2</ele></trkpt><trkpt lat="32.352140" lon="77.182541"><ele>4030.8</ele></trkpt><trkpt lat="32.352174" lon="77.182631"><ele>4035.5</ele></trkpt><trkpt lat="32.352207" lon="77.182720"><ele>4039.2</ele></trkpt><trkpt lat="32.352241" lon="77.182810"><ele>4042.3</ele></trkpt><trkpt lat="32.352218" lon="77.182905"><ele>4046.4</ele></trkpt><trkpt lat="32.352196" lon="77.183001"><ele>4050.5</ele></trkpt><trkpt lat="32.352173" lon="77.183096"><ele>4054.6</ele></trkpt><trkpt lat="32.352151" lon="77.183192"><ele>4058.1</ele></trkpt><trkpt lat="32.352128" lon="77.183287"><ele>4061.5</ele></trkpt><trkpt lat="32.352106" lon="77.183382"><ele>4065.1</ele></trkpt><trkpt lat="32.352083" lon="77.183478"><ele>4068.9</ele></trkpt><trkpt lat="32.352060" lon="77.183573"><ele>4072.8</ele></trkpt><trkpt lat="32.352038" lon="77.183669"><ele>4076.8</ele></trkpt><trkpt lat="32.352015" lon="77.183764"><ele>4080.8</ele></trkpt><trkpt lat="32.351993" lon="77.183860"><ele>4084.8</ele></trkpt><trkpt lat="32.351970" lon="77.183955"><ele>4088.6</ele></trkpt><trkpt lat="32.352021" lon="77.184038"><ele>4094.5</ele></trkpt><trkpt lat="32.352071" lon="77.184122"><ele>4100.5</ele></trkpt><trkpt lat="32.352122" lon="77.184206"><ele>4106.8</ele></trkpt><trkpt lat="32.352172" lon="77.184289"><ele>4112.3</ele></trkpt><trkpt lat="32.352131" lon="77.184345"><ele>4113.2</ele></trkpt><trkpt lat="32.352090" lon="77.184402"><ele>4113.6</ele></trkpt><trkpt lat="32.352049" lon="77.184458"><ele>4113.9</ele></trkpt><trkpt lat="32.352091" lon="77.184537"><ele>4118.9</ele></trkpt><trkpt lat="32.352134" lon="77.184617"><ele>4123.2</ele></trkpt><trkpt lat="32.352176" lon="77.184696"><ele>4127.0</ele></trkpt><trkpt lat="32.352218" lon="77.184776"><ele>4130.3</ele></trkpt><trkpt lat="32.352260" lon="77.184855"><ele>4133.4</ele></trkpt><trkpt lat="32.352303" lon="77.184935"><ele>4136.3</ele></trkpt><trkpt lat="32.352345" lon="77.185014"><ele>4139.4</ele></trkpt></trkseg></trk></gpx>